{"type":"FeatureCollection","features":[{"type":"Feature","properties":{"state":"CA","state_name":"California","avg_jan_temp":0.958,"avg_jan_sun":0.69,"avg_jul_temp":2.167,"avg_jul_hum":0.936,"avg_topo_variation_score":1.36,"avg_water_area":0.618,"avg_amenity_scale":6.729,"avg_amenity_class(1-7)":6.259,"state_amenity_rank":1},"geometry":{"type":"Point","coordinates":[-119.4179,36.7783]}},{"type":"Feature","properties":{"state":"AZ","state_name":"Arizona","avg_jan_temp":0.862,"avg_jan_sun":2.917,"avg_jul_temp":-0.648,"avg_jul_hum":2.072,"avg_topo_variation_score":0.565,"avg_water_area":-1.001,"avg_amenity_scale":4.87,"avg_amenity_class(1-7)":5.667,"state_amenity_rank":2},"geometry":{"type":"Point","coordinates":[-111.0937,34.0489]}},{"type":"Feature","properties":{"state":"NV","state_name":"Nevada","avg_jan_temp":-0.197,"avg_jan_sun":1.46,"avg_jul_temp":0.683,"avg_jul_hum":2.633,"avg_topo_variation_score":0.518,"avg_water_area":-0.38,"avg_amenity_scale":4.718,"avg_amenity_class(1-7)":5.529,"state_amenity_rank":3},"geometry":{"type":"Point","coordinates":[-116.4194,38.8026]}},{"type":"Feature","properties":{"state":"CO","state_name":"Colorado","avg_jan_temp":-0.687,"avg_jan_sun":1.666,"avg_jul_temp":1.196,"avg_jul_hum":1.662,"avg_topo_variation_score":0.888,"avg_water_area":-0.699,"avg_amenity_scale":4.026,"avg_amenity_class(1-7)":5.286,"state_amenity_rank":4},"geometry":{"type":"Point","coordinates":[-105.7821,39.5501]}},{"type":"Feature","properties":{"state":"OR","state_name":"Oregon","avg_jan_temp":0.162,"avg_jan_sun":-1.921,"avg_jul_temp":2.711,"avg_jul_hum":1.395,"avg_topo_variation_score":1.358,"avg_water_area":0.075,"avg_amenity_scale":3.78,"avg_amenity_class(1-7)":5.139,"state_amenity_rank":5},"geometry":{"type":"Point","coordinates":[-120.5542,43.8041]}},{"type":"Feature","properties":{"state":"NM","state_name":"New Mexico","avg_jan_temp":0.147,"avg_jan_sun":2.194,"avg_jul_temp":0.411,"avg_jul_hum":1.531,"avg_topo_variation_score":0.52,"avg_water_area":-1.293,"avg_amenity_scale":3.536,"avg_amenity_class(1-7)":5.03,"state_amenity_rank":6},"geometry":{"type":"Point","coordinates":[-105.8701,34.5199]}},{"type":"Feature","properties":{"state":"UT","state_name":"Utah","avg_jan_temp":-0.59,"avg_jan_sun":-0.032,"avg_jul_temp":0.247,"avg_jul_hum":2.502,"avg_topo_variation_score":1.122,"avg_water_area":0.157,"avg_amenity_scale":3.406,"avg_amenity_class(1-7)":5.034,"state_amenity_rank":7},"geometry":{"type":"Point","coordinates":[-111.0937,39.321]}},{"type":"Feature","properties":{"state":"FL","state_name":"Florida","avg_jan_temp":2.08,"avg_jan_sun":1.389,"avg_jul_temp":0.659,"avg_jul_hum":-1.258,"avg_topo_variation_score":-1.12,"avg_water_area":1.192,"avg_amenity_scale":2.943,"avg_amenity_class(1-7)":4.806,"state_amenity_rank":8},"geometry":{"type":"Point","coordinates":[-81.5158,27.6648]}},{"type":"Feature","properties":{"state":"WY","state_name":"Wyoming","avg_jan_temp":-1.031,"avg_jan_sun":0.58,"avg_jul_temp":0.905,"avg_jul_hum":1.69,"avg_topo_variation_score":1.206,"avg_water_area":-0.467,"avg_amenity_scale":2.883,"avg_amenity_class(1-7)":4.826,"state_amenity_rank":9},"geometry":{"type":"Point","coordinates":[-107.2903,43.0759]}},{"type":"Feature","properties":{"state":"WA","state_name":"Washington","avg_jan_temp":-0.004,"avg_jan_sun":-2.71,"avg_jul_temp":2.34,"avg_jul_hum":1.225,"avg_topo_variation_score":1.181,"avg_water_area":0.745,"avg_amenity_scale":2.777,"avg_amenity_class(1-7)":4.667,"state_amenity_rank":10},"geometry":{"type":"Point","coordinates":[-120.7401,47.7511]}},{"type":"Feature","properties":{"state":"ID","state_name":"Idaho","avg_jan_temp":-0.752,"avg_jan_sun":-1.396,"avg_jul_temp":1.088,"avg_jul_hum":2.324,"avg_topo_variation_score":1.067,"avg_water_area":-0.309,"avg_amenity_scale":2.021,"avg_amenity_class(1-7)":4.318,"state_amenity_rank":11},"geometry":{"type":"Point","coordinates":[-114.742,44.0682]}},{"type":"Feature","properties":{"state":"CT","state_name":"Connecticut","avg_jan_temp":-0.515,"avg_jan_sun":0.308,"avg_jul_temp":0.644,"avg_jul_hum":-0.591,"avg_topo_variation_score":0.891,"avg_water_area":1.058,"avg_amenity_scale":1.796,"avg_amenity_class(1-7)":4.25,"state_amenity_rank":12},"geometry":{"type":"Point","coordinates":[-73.0877,41.6032]}},{"type":"Feature","properties":{"state":"RI","state_name":"Rhode Island","avg_jan_temp":-0.372,"avg_jan_sun":0.497,"avg_jul_temp":0.858,"avg_jul_hum":-0.753,"avg_topo_variation_score":-0.285,"avg_water_area":1.74,"avg_amenity_scale":1.682,"avg_amenity_class(1-7)":4.2,"state_amenity_rank":13},"geometry":{"type":"Point","coordinates":[-71.4774,41.5801]}},{"type":"Feature","properties":{"state":"MT","state_name":"Montana","avg_jan_temp":-1.219,"avg_jan_sun":-0.781,"avg_jul_temp":0.801,"avg_jul_hum":1.771,"avg_topo_variation_score":1.067,"avg_water_area":-0.318,"avg_amenity_scale":1.355,"avg_amenity_class(1-7)":4.018,"state_amenity_rank":14},"geometry":{"type":"Point","coordinates":[-110.3626,46.8797]}},{"type":"Feature","properties":{"state":"TX","state_name":"Texas","avg_jan_temp":1.081,"avg_jan_sun":0.936,"avg_jul_temp":-0.844,"avg_jul_hum":0.954,"avg_topo_variation_score":-0.529,"avg_water_area":-0.326,"avg_amenity_scale":1.273,"avg_amenity_class(1-7)":4.083,"state_amenity_rank":15},"geometry":{"type":"Point","coordinates":[-99.9018,31.9686]}},{"type":"Feature","properties":{"state":"ME","state_name":"Maine","avg_jan_temp":-1.118,"avg_jan_sun":0.143,"avg_jul_temp":1.164,"avg_jul_hum":-1.207,"avg_topo_variation_score":0.464,"avg_water_area":1.387,"avg_amenity_scale":0.833,"avg_amenity_class(1-7)":3.812,"state_amenity_rank":16},"geometry":{"type":"Point","coordinates":[-69.4455,45.2538]}},{"type":"Feature","properties":{"state":"MA","state_name":"Massachusetts","avg_jan_temp":-0.467,"avg_jan_sun":-0.325,"avg_jul_temp":0.826,"avg_jul_hum":-0.665,"avg_topo_variation_score":-0.057,"avg_water_area":1.43,"avg_amenity_scale":0.742,"avg_amenity_class(1-7)":3.786,"state_amenity_rank":17},"geometry":{"type":"Point","coordinates":[-71.3824,42.4072]}},{"type":"Feature","properties":{"state":"OK","state_name":"Oklahoma","avg_jan_temp":0.457,"avg_jan_sun":0.865,"avg_jul_temp":-1.268,"avg_jul_hum":0.767,"avg_topo_variation_score":-0.383,"avg_water_area":0.147,"avg_amenity_scale":0.586,"avg_amenity_class(1-7)":3.714,"state_amenity_rank":18},"geometry":{"type":"Point","coordinates":[-97.0929,35.0078]}},{"type":"Feature","properties":{"state":"NC","state_name":"North Carolina","avg_jan_temp":0.688,"avg_jan_sun":0.615,"avg_jul_temp":0.304,"avg_jul_hum":-1.316,"avg_topo_variation_score":-0.197,"avg_water_area":0.263,"avg_amenity_scale":0.358,"avg_amenity_class(1-7)":3.63,"state_amenity_rank":19},"geometry":{"type":"Point","coordinates":[-79.0193,35.7596]}},{"type":"Feature","properties":{"state":"GA","state_name":"Georgia","avg_jan_temp":1.162,"avg_jan_sun":0.425,"avg_jul_temp":0.172,"avg_jul_hum":-1.104,"avg_topo_variation_score":-0.381,"avg_water_area":0.048,"avg_amenity_scale":0.322,"avg_amenity_class(1-7)":3.579,"state_amenity_rank":20},"geometry":{"type":"Point","coordinates":[-82.9001,32.1656]}},{"type":"Feature","properties":{"state":"SC","state_name":"South Carolina","avg_jan_temp":1.036,"avg_jan_sun":0.767,"avg_jul_temp":-0.006,"avg_jul_hum":-1.166,"avg_topo_variation_score":-0.74,"avg_water_area":0.425,"avg_amenity_scale":0.316,"avg_amenity_class(1-7)":3.609,"state_amenity_rank":21},"geometry":{"type":"Point","coordinates":[-81.1637,33.8361]}},{"type":"Feature","properties":{"state":"AL","state_name":"Alabama","avg_jan_temp":1.063,"avg_jan_sun":-0.288,"avg_jul_temp":-0.016,"avg_jul_hum":-0.766,"avg_topo_variation_score":0.132,"avg_water_area":0.12,"avg_amenity_scale":0.246,"avg_amenity_class(1-7)":3.567,"state_amenity_rank":22},"geometry":{"type":"Point","coordinates":[-86.9023,32.3182]}},{"type":"Feature","properties":{"state":"NH","state_name":"New Hampshire","avg_jan_temp":-1.048,"avg_jan_sun":-0.422,"avg_jul_temp":0.748,"avg_jul_hum":-0.897,"avg_topo_variation_score":1.08,"avg_water_area":0.778,"avg_amenity_scale":0.238,"avg_amenity_class(1-7)":3.6,"state_amenity_rank":23},"geometry":{"type":"Point","coordinates":[-71.5724,43.1939]}},{"type":"Feature","properties":{"state":"NJ","state_name":"New Jersey","avg_jan_temp":-0.148,"avg_jan_sun":0.022,"avg_jul_temp":0.05,"avg_jul_hum":-0.366,"avg_topo_variation_score":-0.314,"avg_water_area":0.904,"avg_amenity_scale":0.149,"avg_amenity_class(1-7)":3.571,"state_amenity_rank":24},"geometry":{"type":"Point","coordinates":[-74.4057,40.0583]}},{"type":"Feature","properties":{"state":"TN","state_name":"Tennessee","avg_jan_temp":0.455,"avg_jan_sun":-0.625,"avg_jul_temp":0.061,"avg_jul_hum":-0.48,"avg_topo_variation_score":0.593,"avg_water_area":0.028,"avg_amenity_scale":0.032,"avg_amenity_class(1-7)":3.516,"state_amenity_rank":25},"geometry":{"type":"Point","coordinates":[-86.5804,35.5175]}},{"type":"Feature","properties":{"state":"AR","state_name":"Arkansas","avg_jan_temp":0.649,"avg_jan_sun":-0.124,"avg_jul_temp":-0.642,"avg_jul_hum":-0.19,"avg_topo_variation_score":0.138,"avg_water_area":0.187,"avg_amenity_scale":0.018,"avg_amenity_class(1-7)":3.453,"state_amenity_rank":26},"geometry":{"type":"Point","coordinates":[-92.3731,34.9697]}},{"type":"Feature","properties":{"state":"DE","state_name":"Delaware","avg_jan_temp":0.097,"avg_jan_sun":0.135,"avg_jul_temp":-0.02,"avg_jul_hum":-0.89,"avg_topo_variation_score":-0.992,"avg_water_area":1.666,"avg_amenity_scale":-0.003,"avg_amenity_class(1-7)":3,"state_amenity_rank":27},"geometry":{"type":"Point","coordinates":[-75.5277,38.9108]}},{"type":"Feature","properties":{"state":"MD","state_name":"Maryland","avg_jan_temp":0.094,"avg_jan_sun":-0.088,"avg_jul_temp":0.062,"avg_jul_hum":-0.788,"avg_topo_variation_score":-0.544,"avg_water_area":1.195,"avg_amenity_scale":-0.068,"avg_amenity_class(1-7)":3.5,"state_amenity_rank":28},"geometry":{"type":"Point","coordinates":[-76.6413,39.0458]}},{"type":"Feature","properties":{"state":"VA","state_name":"Virginia","avg_jan_temp":0.298,"avg_jan_sun":0.027,"avg_jul_temp":0.316,"avg_jul_hum":-0.951,"avg_topo_variation_score":0.153,"avg_water_area":-0.625,"avg_amenity_scale":-0.094,"avg_amenity_class(1-7)":3.419,"state_amenity_rank":29},"geometry":{"type":"Point","coordinates":[-78.6569,37.4316]}},{"type":"Feature","properties":{"state":"PA","state_name":"Pennsylvania","avg_jan_temp":-0.405,"avg_jan_sun":-0.808,"avg_jul_temp":0.517,"avg_jul_hum":-0.413,"avg_topo_variation_score":0.972,"avg_water_area":-0.041,"avg_amenity_scale":-0.178,"avg_amenity_class(1-7)":3.403,"state_amenity_rank":30},"geometry":{"type":"Point","coordinates":[-77.1945,41.2033]}},{"type":"Feature","properties":{"state":"MO","state_name":"Missouri","avg_jan_temp":-0.183,"avg_jan_sun":0.253,"avg_jul_temp":-0.693,"avg_jul_hum":0.044,"avg_topo_variation_score":0.49,"avg_water_area":-0.227,"avg_amenity_scale":-0.317,"avg_amenity_class(1-7)":3.339,"state_amenity_rank":31},"geometry":{"type":"Point","coordinates":[-91.8318,37.9643]}},{"type":"Feature","properties":{"state":"LA","state_name":"Louisiana","avg_jan_temp":1.425,"avg_jan_sun":-0.412,"avg_jul_temp":-0.182,"avg_jul_hum":-0.9,"avg_topo_variation_score":-1.062,"avg_water_area":0.795,"avg_amenity_scale":-0.336,"avg_amenity_class(1-7)":3.375,"state_amenity_rank":32},"geometry":{"type":"Point","coordinates":[-91.9623,30.9843]}},{"type":"Feature","properties":{"state":"MS","state_name":"Mississippi","avg_jan_temp":1.082,"avg_jan_sun":-0.086,"avg_jul_temp":-0.303,"avg_jul_hum":-0.667,"avg_topo_variation_score":-0.507,"avg_water_area":0.089,"avg_amenity_scale":-0.391,"avg_amenity_class(1-7)":3.232,"state_amenity_rank":33},"geometry":{"type":"Point","coordinates":[-89.3985,32.3547]}},{"type":"Feature","properties":{"state":"VT","state_name":"Vermont","avg_jan_temp":-1.283,"avg_jan_sun":-0.785,"avg_jul_temp":0.568,"avg_jul_hum":-0.548,"avg_topo_variation_score":1.232,"avg_water_area":0.408,"avg_amenity_scale":-0.409,"avg_amenity_class(1-7)":3.214,"state_amenity_rank":34},"geometry":{"type":"Point","coordinates":[-72.5778,44.5588]}},{"type":"Feature","properties":{"state":"KY","state_name":"Kentucky","avg_jan_temp":0.171,"avg_jan_sun":-0.688,"avg_jul_temp":0.005,"avg_jul_hum":-0.439,"avg_topo_variation_score":0.705,"avg_water_area":-0.215,"avg_amenity_scale":-0.461,"avg_amenity_class(1-7)":3.317,"state_amenity_rank":35},"geometry":{"type":"Point","coordinates":[-84.27,37.8393]}},{"type":"Feature","properties":{"state":"NY","state_name":"New York","avg_jan_temp":-0.777,"avg_jan_sun":-1.001,"avg_jul_temp":0.468,"avg_jul_hum":-0.492,"avg_topo_variation_score":0.388,"avg_water_area":0.838,"avg_amenity_scale":-0.576,"avg_amenity_class(1-7)":3.161,"state_amenity_rank":36},"geometry":{"type":"Point","coordinates":[-75,43]}},{"type":"Feature","properties":{"state":"WV","state_name":"West Virginia","avg_jan_temp":-0.057,"avg_jan_sun":-1.377,"avg_jul_temp":0.677,"avg_jul_hum":-0.811,"avg_topo_variation_score":1.502,"avg_water_area":-0.528,"avg_amenity_scale":-0.593,"avg_amenity_class(1-7)":3.109,"state_amenity_rank":37},"geometry":{"type":"Point","coordinates":[-80.4549,38.5976]}},{"type":"Feature","properties":{"state":"KS","state_name":"Kansas","avg_jan_temp":-0.212,"avg_jan_sun":0.979,"avg_jul_temp":-1.127,"avg_jul_hum":0.484,"avg_topo_variation_score":-0.459,"avg_water_area":-0.705,"avg_amenity_scale":-1.041,"avg_amenity_class(1-7)":3.048,"state_amenity_rank":38},"geometry":{"type":"Point","coordinates":[-98.4842,39.0119]}},{"type":"Feature","properties":{"state":"MI","state_name":"Michigan","avg_jan_temp":-0.992,"avg_jan_sun":-1.382,"avg_jul_temp":0.783,"avg_jul_hum":-0.281,"avg_topo_variation_score":-0.572,"avg_water_area":1.035,"avg_amenity_scale":-1.408,"avg_amenity_class(1-7)":2.892,"state_amenity_rank":39},"geometry":{"type":"Point","coordinates":[-85.6024,44.3148]}},{"type":"Feature","properties":{"state":"NE","state_name":"Nebraska","avg_jan_temp":-0.802,"avg_jan_sun":0.732,"avg_jul_temp":-0.809,"avg_jul_hum":0.121,"avg_topo_variation_score":-0.144,"avg_water_area":-0.545,"avg_amenity_scale":-1.448,"avg_amenity_class(1-7)":2.817,"state_amenity_rank":40},"geometry":{"type":"Point","coordinates":[-99.9018,41.4925]}},{"type":"Feature","properties":{"state":"SD","state_name":"South Dakota","avg_jan_temp":-1.409,"avg_jan_sun":0.287,"avg_jul_temp":-0.78,"avg_jul_hum":0.629,"avg_topo_variation_score":-0.292,"avg_water_area":-0.03,"avg_amenity_scale":-1.595,"avg_amenity_class(1-7)":2.788,"state_amenity_rank":41},"geometry":{"type":"Point","coordinates":[-99.9018,43.9695]}},{"type":"Feature","properties":{"state":"WI","state_name":"Wisconsin","avg_jan_temp":-1.436,"avg_jan_sun":-0.541,"avg_jul_temp":0.066,"avg_jul_hum":-0.307,"avg_topo_variation_score":-0.291,"avg_water_area":0.796,"avg_amenity_scale":-1.713,"avg_amenity_class(1-7)":2.625,"state_amenity_rank":42},"geometry":{"type":"Point","coordinates":[-88.7879,43.7844]}},{"type":"Feature","properties":{"state":"OH","state_name":"Ohio","avg_jan_temp":-0.362,"avg_jan_sun":-1.116,"avg_jul_temp":0.307,"avg_jul_hum":-0.338,"avg_topo_variation_score":-0.13,"avg_water_area":-0.092,"avg_amenity_scale":-1.731,"avg_amenity_class(1-7)":2.659,"state_amenity_rank":43},"geometry":{"type":"Point","coordinates":[-82.9071,40.4173]}},{"type":"Feature","properties":{"state":"IL","state_name":"Illinois","avg_jan_temp":-0.431,"avg_jan_sun":-0.39,"avg_jul_temp":-0.513,"avg_jul_hum":-0.164,"avg_topo_variation_score":-0.633,"avg_water_area":0.007,"avg_amenity_scale":-2.122,"avg_amenity_class(1-7)":2.51,"state_amenity_rank":44},"geometry":{"type":"Point","coordinates":[-89.3985,40.6331]}},{"type":"Feature","properties":{"state":"IN","state_name":"Indiana","avg_jan_temp":-0.356,"avg_jan_sun":-0.777,"avg_jul_temp":-0.107,"avg_jul_hum":-0.27,"avg_topo_variation_score":-0.572,"avg_water_area":-0.2,"avg_amenity_scale":-2.281,"avg_amenity_class(1-7)":2.413,"state_amenity_rank":45},"geometry":{"type":"Point","coordinates":[-86.1349,40.2672]}},{"type":"Feature","properties":{"state":"ND","state_name":"North Dakota","avg_jan_temp":-2.116,"avg_jan_sun":-0.123,"avg_jul_temp":-0.456,"avg_jul_hum":0.629,"avg_topo_variation_score":-0.571,"avg_water_area":0.14,"avg_amenity_scale":-2.498,"avg_amenity_class(1-7)":2.453,"state_amenity_rank":46},"geometry":{"type":"Point","coordinates":[-101.002,47.5515]}},{"type":"Feature","properties":{"state":"IA","state_name":"Iowa","avg_jan_temp":-1.125,"avg_jan_sun":0.08,"avg_jul_temp":-0.671,"avg_jul_hum":-0.196,"avg_topo_variation_score":-0.219,"avg_water_area":-0.475,"avg_amenity_scale":-2.606,"avg_amenity_class(1-7)":2.394,"state_amenity_rank":47},"geometry":{"type":"Point","coordinates":[-93.0977,41.878]}},{"type":"Feature","properties":{"state":"MN","state_name":"Minnesota","avg_jan_temp":-1.887,"avg_jan_sun":-0.264,"avg_jul_temp":-0.553,"avg_jul_hum":0.04,"avg_topo_variation_score":-0.651,"avg_water_area":0.438,"avg_amenity_scale":-2.877,"avg_amenity_class(1-7)":2.172,"state_amenity_rank":48},"geometry":{"type":"Point","coordinates":[-94.6859,46.7296]}}]}